{
    "links": {
        "self": "http://www.neowsapp.com/rest/v1/neo/3831470?api_key=iIulBulltgU6a56xZRHN4H3l9WmuAYTsLGpBGhQ2"
    },
    "id": "3831470",
    "neo_reference_id": "3831470",
    "name": "(2018 TW2)",
    "designation": "2018 TW2",
    "nasa_jpl_url": "http://ssd.jpl.nasa.gov/sbdb.cgi?sstr=3831470",
    "absolute_magnitude_h": 25.0,
    "estimated_diameter": {
        "kilometers": {
            "estimated_diameter_min": 0.02658,
            "estimated_diameter_max": 0.0594346868
        },
        "meters": {
            "estimated_diameter_min": 26.58,
            "estimated_diameter_max": 59.4346868419
        },
        "miles": {
            "estimated_diameter_min": 0.0165160412,
            "estimated_diameter_max": 0.0369309908
        },
        "feet": {
            "estimated_diameter_min": 87.2047272,
            "estimated_diameter_max": 194.9956979785
        }
    },
    "is_potentially_hazardous_asteroid": false,
    "close_approach_data": [
        {
            "close_approach_date": "2018-10-02",
            "close_approach_date_full": "2018-Oct-02 05:40",
            "epoch_date_close_approach": 1538458800000,
            "relative_velocity": {
                "kilometers_per_second": "5.7662229599",
                "kilometers_per_hour": "20758.4026555359",
                "miles_per_hour": "12898.4641389356"
            },
            "miss_distance": {
                "astronomical": "0.1090314309",
                "lunar": "42.4132266201",
                "kilometers": "16310869.825692183",
                "miles": "10135104.5386428054"
            },
            "orbiting_body": "Earth"
        },
        {
            "close_approach_date": "2023-09-27",
            "close_approach_date_full": "2023-Sep-27 11:47",
            "epoch_date_close_approach": 1695815220000,
            "relative_velocity": {
                "kilometers_per_second": "8.7614465975",
                "kilometers_per_hour": "31541.2077511475",
                "miles_per_hour": "19598.4798940394"
            },
            "miss_distance": {
                "astronomical": "0.2997511537",
                "lunar": "116.6031987893",
                "kilometers": "44842134.123562619",
                "miles": "27863610.0916133822"
            },
            "orbiting_body": "Earth"
        }
    ],
    "orbital_data": {
        "orbit_id": "4",
        "orbit_determination_date": "2018-11-05 05:29:03",
        "first_observation_date": "2018-10-05",
        "last_observation_date": "2018-10-19",
        "data_arc_in_days": 14,
        "observations_used": 31,
        "orbit_uncertainty": "7",
        "minimum_orbit_intersection": ".10794",
        "jupiter_tisserand_invariant": "4.683",
        "epoch_osculation": "2459000.5",
        "eccentricity": ".2177039823765558",
        "semi_major_axis": "1.413403654233126",
        "inclination": "10.20708881020953",
        "ascending_node_longitude": "194.892737167289",
        "orbital_period": "613.7588134944613",
        "perihelion_distance": "1.105700050000998",
        "perihelion_argument": "169.1517541287054",
        "aphelion_distance": "1.721107258465254",
        "perihelion_time": "2459003.625870802385",
        "mean_anomaly": "358.1665216627168",
        "mean_motion": ".5865496219114559",
        "equinox": "J2000",
        "orbit_class": {
            "orbit_class_type": "AMO",
            "orbit_class_description": "Near-Earth asteroid orbits similar to that of 1221 Amor",
            "orbit_class_range": "1.017 AU < q (perihelion) < 1.3 AU"
        }
    },
    "is_sentry_object": false
}